NORAD_CAT_ID,OBJECT_NAME,OBJECT_TYPE,EPOCH,MEAN_MOTION,ECCENTRICITY,INCLINATION,RA_OF_ASC_NODE,ARG_OF_PERICENTER,MEAN_ANOMALY,BSTAR,MEAN_MOTION_DOT,MEAN_MOTION_DDOT,TLE_LINE0,TLE_LINE1,TLE_LINE2,SEMIMAJOR_AXIS,PERIOD,APOGEE,PERIGEE,DECAYED
51722.0,STARLINK-3535,PAYLOAD,2024-03-10 13:01:59,15.08851198,0.0001341,53.219,2.3814,109.8302,250.2835,0.00011187,1.493e-05,0.0,0 STARLINK-3535,1 51722U 22016J   24070.54304850  .00001493  00000-0  11187-3 0  9998,2 51722  53.2190   2.3814 0001341 109.8302 250.2835 15.08851198114400,6917.846,95.437,540.639,538.783,0.0
51722.0,STARLINK-3535,PAYLOAD,2024-03-10 19:23:32,15.08831437,0.000159,53.2193,1.1963,83.3162,276.8011,0.00015154,2.124e-05,0.0,0 STARLINK-3535,1 51722U 22016J   24070.80802056  .00002124  00000-0  15154-3 0  9998,2 51722  53.2193   1.1963 0001590  83.3162 276.8011 15.08831437114449,6917.907,95.438,540.872,538.672,0.0
51722.0,STARLINK-3535,PAYLOAD,2024-03-11 01:45:05,15.0882958,0.0001237,53.218,0.0058,90.8743,269.2391,0.00011881,1.603e-05,0.0,0 STARLINK-3535,1 51722U 22016J   24071.07298281  .00001603  00000-0  11881-3 0  9991,2 51722  53.2180   0.0058 0001237  90.8743 269.2391 15.08829580113424,6917.912,95.438,540.633,538.921,0.0
51722.0,STARLINK-3535,PAYLOAD,2024-03-12 04:46:39,15.08839279,0.0001416,53.2187,354.9518,94.5004,265.615,-1.604e-05,-5.43e-06,0.0,0 STARLINK-3535,1 51722U 22016J   24072.19906362 -.00000543  00000-0 -16040-4 0  9998,2 51722  53.2187 354.9518 0001416  94.5004 265.6150 15.08839279114658,6917.883,95.438,540.727,538.768,0.0
51722.0,STARLINK-3535,PAYLOAD,2024-03-13 10:58:58,15.08845984,0.0001433,53.2191,349.3035,85.705,274.4106,0.00015533,2.185e-05,0.0,0 STARLINK-3535,1 51722U 22016J   24073.45761767  .00002185  00000-0  15533-3 0  9993,2 51722  53.2191 349.3035 0001433  85.7050 274.4106 15.08845984114847,6917.862,95.437,540.718,538.736,0.0
51722.0,STARLINK-3535,PAYLOAD,2024-03-13 22:06:41,15.0883009,0.0001562,53.2188,347.22,81.0905,279.0264,3.0899e-05,2.04e-06,0.0,0 STARLINK-3535,1 51722U 22016J   24073.92131352  .00000204  00000-0  30899-4 0  9999,2 51722  53.2188 347.2200 0001562  81.0905 279.0264 15.08830090113853,6917.911,95.438,540.856,538.695,0.0
51722.0,STARLINK-3535,PAYLOAD,2024-03-14 21:57:28,15.08847723,0.000157,53.2195,342.7632,105.0374,255.0792,-3.68e-05,-8.74e-06,0.0,0 STARLINK-3535,1 51722U 22016J   24074.91490760 -.00000874  00000-0 -36800-4 0  9993,2 51722  53.2195 342.7632 0001570 105.0374 255.0792 15.08847723114005,6917.857,95.437,540.808,538.636,0.0
51722.0,STARLINK-3535,PAYLOAD,2024-03-15 02:43:37,15.0884193,0.0001509,53.2192,341.8717,77.8711,282.2451,1.4452e-07,-2.86e-06,0.0,0 STARLINK-3535,1 51722U 22016J   24075.11363107 -.00000286  00000-0  14452-6 0  9997,2 51722  53.2192 341.8717 0001509  77.8711 282.2451 15.08841930115097,6917.874,95.437,540.783,538.696,0.0
51722.0,STARLINK-3535,PAYLOAD,2024-03-16 00:59:01,15.08841588,0.0001253,53.2178,337.7055,98.0966,262.0168,0.00010061,1.314e-05,0.0,0 STARLINK-3535,1 51722U 22016J   24076.04098758  .00001314  00000-0  10061-3 0  9998,2 51722  53.2178 337.7055 0001253  98.0966 262.0168 15.08841588114171,6917.876,95.437,540.607,538.874,0.0
51722.0,STARLINK-3535,PAYLOAD,2024-03-16 21:39:02,15.08840148,0.0001236,53.218,333.8379,96.0357,264.0776,7.3662e-05,8.85e-06,0.0,0 STARLINK-3535,1 51722U 22016J   24076.90210946  .00000885  00000-0  73662-4 0  9997,2 51722  53.2180 333.8379 0001236  96.0357 264.0776 15.08840148114306,6917.88,95.438,540.6,538.89,0.0
51722.0,STARLINK-3535,PAYLOAD,2024-03-17 00:49:48,15.08841731,0.0001381,53.2186,333.2463,89.5468,270.5683,9.0154e-05,1.147e-05,0.0,0 STARLINK-3535,1 51722U 22016J   24077.03458895  .00001147  00000-0  90154-4 0  9996,2 51722  53.2186 333.2463 0001381  89.5468 270.5683 15.08841731115388,6917.875,95.437,540.695,538.785,0.0
51722.0,STARLINK-3535,PAYLOAD,2024-03-17 21:29:49,15.08843185,0.0001408,53.2183,329.386,86.6121,273.5032,9.0563e-05,1.154e-05,0.0,0 STARLINK-3535,1 51722U 22016J   24077.89570713  .00001154  00000-0  90563-4 0  9996,2 51722  53.2183 329.3860 0001408  86.6121 273.5032 15.08843185114459,6917.871,95.437,540.71,538.762,0.0
51722.0,STARLINK-3535,PAYLOAD,2024-03-18 02:15:58,15.08845128,0.0001617,53.2193,328.4861,75.5858,284.5314,0.00010158,1.329e-05,0.0,0 STARLINK-3535,1 51722U 22016J   24078.09442552  .00001329  00000-0  10158-3 0  9993,2 51722  53.2193 328.4861 0001617  75.5858 284.5314 15.08845128115542,6917.865,95.437,540.848,538.611,0.0
51722.0,STARLINK-3535,PAYLOAD,2024-03-18 21:20:35,15.08842877,0.0001425,53.2188,324.9143,94.2133,265.9022,5.7028e-05,6.2e-06,0.0,0 STARLINK-3535,1 51722U 22016J   24078.88930549  .00000620  00000-0  57028-4 0  9999,2 51722  53.2188 324.9143 0001425  94.2133 265.9022 15.08842877114604,6917.872,95.437,540.722,538.751,0.0
51722.0,STARLINK-3535,PAYLOAD,2024-03-19 02:06:45,15.08842283,0.0001414,53.2186,324.0233,96.97,263.1453,4.7914e-05,4.75e-06,0.0,0 STARLINK-3535,1 51722U 22016J   24079.08802552  .00000475  00000-0  47914-4 0  9995,2 51722  53.2186 324.0233 0001414  96.9700 263.1453 15.08842283115699,6917.873,95.437,540.717,538.76,0.0
51722.0,STARLINK-3535,PAYLOAD,2024-03-19 21:11:22,15.08848933,0.0001492,53.2182,320.4551,115.1305,244.9842,0.00010796,1.431e-05,0.0,0 STARLINK-3535,1 51722U 22016J   24079.88289686  .00001431  00000-0  10796-3 0  9990,2 51722  53.2182 320.4551 0001492 115.1305 244.9842 15.08848933115810,6917.853,95.437,540.75,538.686,0.0
51722.0,STARLINK-3535,PAYLOAD,2024-03-20 01:57:31,15.08849734,0.0001406,53.2183,319.5633,109.212,250.9024,0.00010501,1.384e-05,0.0,0 STARLINK-3535,1 51722U 22016J   24080.08161594  .00001384  00000-0  10501-3 0  9992,2 51722  53.2183 319.5633 0001406 109.2120 250.9024 15.08849734114789,6917.851,95.437,540.688,538.743,0.0
51722.0,STARLINK-3535,PAYLOAD,2024-03-20 21:02:10,15.08835414,0.0001304,53.2174,315.9932,120.3815,239.7306,1.8876e-05,1.3e-07,0.0,0 STARLINK-3535,1 51722U 22016J   24080.87650823  .00000013  00000-0  18876-4 0  9999,2 51722  53.2174 315.9932 0001304 120.3815 239.7306 15.08835414115962,6917.894,95.438,540.661,538.857,0.0
51722.0,STARLINK-3535,PAYLOAD,2024-03-20 22:37:33,15.08833485,0.0001098,53.2182,315.699,101.2684,258.8432,-2.0166e-05,-6.09e-06,0.0,0 STARLINK-3535,1 51722U 22016J   24080.94275168 -.00000609  00000-0 -20166-4 0  9990,2 51722  53.2182 315.6990 0001098 101.2684 258.8432 15.08833485114916,6917.9,95.438,540.525,539.006,0.0
51722.0,STARLINK-3535,PAYLOAD,2024-03-21 14:31:25,15.08835271,0.0001233,53.2193,312.7291,104.1289,255.984,1.7596e-05,-8e-08,0.0,0 STARLINK-3535,1 51722U 22016J   24081.60515247 -.00000008  00000-0  17596-4 0  9994,2 51722  53.2193 312.7291 0001233 104.1289 255.9840 15.08835271115012,6917.895,95.438,540.613,538.907,0.0
51722.0,STARLINK-3535,PAYLOAD,2024-03-21 20:52:57,15.08837477,0.0001432,53.2183,311.5402,117.0619,243.052,-2.2105e-05,-6.4e-06,0.0,0 STARLINK-3535,1 51722U 22016J   24081.87010849 -.00000640  00000-0 -22105-4 0  9996,2 51722  53.2183 311.5402 0001432 117.0619 243.0520 15.08837477115050,6917.888,95.438,540.744,538.762,0.0
51722.0,STARLINK-3535,PAYLOAD,2024-03-22 20:43:44,15.08836201,0.0001344,53.2184,307.0803,114.1231,245.9902,0.00027305,4.06e-05,0.0,0 STARLINK-3535,1 51722U 22016J   24082.86371217  .00004060  00000-0  27305-3 0  9999,2 51722  53.2184 307.0803 0001344 114.1231 245.9902 15.08836201116269,6917.892,95.438,540.687,538.827,0.0
51722.0,STARLINK-3535,PAYLOAD,2024-03-22 22:19:07,15.08835472,0.0001304,53.218,306.7828,114.6193,245.4935,0.00018452,2.65e-05,0.0,0 STARLINK-3535,1 51722U 22016J   24082.92995274  .00002650  00000-0  18452-3 0  9997,2 51722  53.2180 306.7828 0001304 114.6193 245.4935 15.08835472115210,6917.894,95.438,540.661,538.857,0.0
51722.0,STARLINK-3535,PAYLOAD,2024-03-23 22:09:54,15.08845771,0.0001135,53.2163,302.3196,105.4112,254.7005,0.00014457,2.014e-05,0.0,0 STARLINK-3535,1 51722U 22016J   24083.92354973  .00002014  00000-0  14457-3 0  9998,2 51722  53.2163 302.3196 0001135 105.4112 254.7005 15.08845771115362,6917.863,95.437,540.513,538.943,0.0
51722.0,STARLINK-3535,PAYLOAD,2024-03-23 23:45:17,15.0884977,0.000116,53.2164,302.0211,108.8367,251.2751,0.00018858,2.715e-05,0.0,0 STARLINK-3535,1 51722U 22016J   24083.98978724  .00002715  00000-0  18858-3 0  9997,2 51722  53.2164 302.0211 0001160 108.8367 251.2751 15.08849770116437,6917.851,95.437,540.518,538.913,0.0
51722.0,STARLINK-3535,PAYLOAD,2024-03-24 07:42:13,15.08854746,0.0001155,53.2167,300.5333,99.4181,260.6942,0.00026343,3.909e-05,0.0,0 STARLINK-3535,1 51722U 22016J   24084.32098427  .00003909  00000-0  26343-3 0  9993,2 51722  53.2167 300.5333 0001155  99.4181 260.6942 15.08854746115424,6917.835,95.437,540.499,538.901,0.0
51722.0,STARLINK-3535,PAYLOAD,2024-03-24 20:25:18,15.08846435,0.0001125,53.2147,298.156,106.693,253.4185,0.00029183,4.36e-05,0.0,0 STARLINK-3535,1 51722U 22016J   24084.85091127  .00004360  00000-0  29183-3 0  9998,2 51722  53.2147 298.1560 0001125 106.6930 253.4185 15.08846435116567,6917.861,95.437,540.504,538.947,0.0
51722.0,STARLINK-3535,PAYLOAD,2024-03-25 20:16:05,15.0885749,0.0001214,53.2153,293.6928,101.4288,258.684,0.00047478,7.28e-05,0.0,0 STARLINK-3535,1 51722U 22016J   24085.84450470  .00007280  00000-0  47478-3 0  9999,2 51722  53.2153 293.6928 0001214 101.4288 258.6840 15.08857490115657,6917.827,95.436,540.532,538.852,0.0
51722.0,STARLINK-3535,PAYLOAD,2024-03-26 07:23:46,15.08871054,0.0001344,53.2157,291.6127,90.771,269.3436,0.00070131,0.000109,0.0,0 STARLINK-3535,1 51722U 22016J   24086.30817603  .00010900  00000-0  70131-3 0  9991,2 51722  53.2157 291.6127 0001344  90.7710 269.3436 15.08871054116781,6917.785,95.436,540.58,538.721,0.0
51722.0,STARLINK-3535,PAYLOAD,2024-03-26 20:06:53,15.08819355,0.0001348,53.2165,289.2327,116.0633,244.0498,-0.00043003,-7.121e-05,0.0,0 STARLINK-3535,1 51722U 22016J   24086.83811369 -.00007121  00000-0 -43003-3 0  9993,2 51722  53.2165 289.2327 0001348 116.0633 244.0498 15.08819355116868,6917.943,95.439,540.741,538.876,0.0
